{"type": "FeatureCollection", "features": [ {"type": "Feature", "properties": {"norad_id": 66633, "name": "STARLINK-35948", "group": "last-30-days", "lat": -52.561889661357164, "lon": 71.63032615233568, "alt_km": 452.5649391632369, "timestamp": "2025-12-20T14:38:00.687759+00:00", "meta": {"OBJECT_NAME": "STARLINK-35948", "OBJECT_ID": "2025-271S", "EPOCH": "2025-12-19T17:10:55.246080", "MEAN_MOTION": 15.39629537, "ECCENTRICITY": 0.00010441, "INCLINATION": 53.1596, "RA_OF_ASC_NODE": 154.1516, "ARG_OF_PERICENTER": 81.5844, "MEAN_ANOMALY": 278.5279, "EPHEMERIS_TYPE": 0, "CLASSIFICATION_TYPE": "U", "NORAD_CAT_ID": 66633, "ELEMENT_SET_NO": 999, "REV_AT_EPOCH": 528, "BSTAR": 0.0006790438, "MEAN_MOTION_DOT": 0.00026866, "MEAN_MOTION_DDOT": 0}, "tle": {"line1": "1 66633U 25271S   25353.71591720  .00026866  00000+0  67904-3 0  9997", "line2": "2 66633  53.1596 154.1516 0001044  81.5844 278.5279 15.39629537  5282"}}, "geometry": {"type": "Point", "coordinates": [71.63032615233568, -52.561889661357164]}}, {"type": "Feature", "properties": {"norad_id": 66634, "name": "STARLINK-35967", "group": "last-30-days", "lat": -42.34006675750494, "lon": 106.79819343212293, "alt_km": 451.990128041989, "timestamp": "2025-12-20T14:38:00.687769+00:00", "meta": {"OBJECT_NAME": "STARLINK-35967", "OBJECT_ID": "2025-271T", "EPOCH": "2025-12-20T00:00:02.000160", "MEAN_MOTION": 15.39616609, "ECCENTRICITY": 9.881e-05, "INCLINATION": 53.1601, "RA_OF_ASC_NODE": 152.7619, "ARG_OF_PERICENTER": 59.4964, "MEAN_ANOMALY": 101.9399, "EPHEMERIS_TYPE": 0, "CLASSIFICATION_TYPE": "U", "NORAD_CAT_ID": 66634, "ELEMENT_SET_NO": 999, "REV_AT_EPOCH": 534, "BSTAR": 0.00039440356, "MEAN_MOTION_DOT": 0.00015406, "MEAN_MOTION_DDOT": 0}, "tle": {"line1": "1 66634U 25271T   25354.00002315  .00015406  00000+0  39440-3 0  9990", "line2": "2 66634  53.1601 152.7619 0000988  59.4964 101.9399 15.39616609  5346"}}, "geometry": {"type": "Point", "coordinates": [106.79819343212293, -42.34006675750494]}}, {"type": "Feature", "properties": {"norad_id": 66635, "name": "STARLINK-35955", "group": "last-30-days", "lat": -4.705686453404625, "lon": 146.24789367502717, "alt_km": 448.8827854140427, "timestamp": "2025-12-20T14:38:00.687779+00:00", "meta": {"OBJECT_NAME": "STARLINK-35955", "OBJECT_ID": "2025-271U", "EPOCH": "2025-12-20T06:00:02.999808", "MEAN_MOTION": 15.39591842, "ECCENTRICITY": 0.00010654, "INCLINATION": 53.1597, "RA_OF_ASC_NODE": 151.4814, "ARG_OF_PERICENTER": 97.3247, "MEAN_ANOMALY": 62.1321, "EPHEMERIS_TYPE": 0, "CLASSIFICATION_TYPE": "U", "NORAD_CAT_ID": 66635, "ELEMENT_SET_NO": 999, "REV_AT_EPOCH": 545, "BSTAR": 0.0012450655, "MEAN_MOTION_DOT": 0.00049681, "MEAN_MOTION_DDOT": 0}, "tle": {"line1": "1 66635U 25271U   25354.25003472  .00049681  00000+0  12451-2 0  9997", "line2": "2 66635  53.1597 151.4814 0001065  97.3247  62.1321 15.39591842  5452"}}, "geometry": {"type": "Point", "coordinates": [146.24789367502717, -4.705686453404625]}}, {"type": "Feature", "properties": {"norad_id": 66636, "name": "STARLINK-35968", "group": "last-30-days", "lat": -24.804552749915757, "lon": 129.5637867260981, "alt_km": 450.8860454318292, "timestamp": "2025-12-20T14:38:00.687789+00:00", "meta": {"OBJECT_NAME": "STARLINK-35968", "OBJECT_ID": "2025-271V", "EPOCH": "2025-12-20T06:00:02.999808", "MEAN_MOTION": 15.39593203, "ECCENTRICITY": 6.173e-05, "INCLINATION": 53.1601, "RA_OF_ASC_NODE": 151.5318, "ARG_OF_PERICENTER": 85.6358, "MEAN_ANOMALY": 48.065, "EPHEMERIS_TYPE": 0, "CLASSIFICATION_TYPE": "U", "NORAD_CAT_ID": 66636, "ELEMENT_SET_NO": 999, "REV_AT_EPOCH": 545, "BSTAR": 0.0011902736, "MEAN_MOTION_DOT": 0.00047465, "MEAN_MOTION_DDOT": 0}, "tle": {"line1": "1 66636U 25271V   25354.25003472  .00047465  00000+0  11903-2 0  9997", "line2": "2 66636  53.1601 151.5318 0000617  85.6358  48.0650 15.39593203  5455"}}, "geometry": {"type": "Point", "coordinates": [129.5637867260981, -24.804552749915757]}}, {"type": "Feature", "properties": {"norad_id": 66637, "name": "STARLINK-35953", "group": "last-30-days", "lat": 15.784468717399614, "lon": 161.9696237870645, "alt_km": 445.5289585036917, "timestamp": "2025-12-20T14:38:00.687801+00:00", "meta": {"OBJECT_NAME": "STARLINK-35953", "OBJECT_ID": "2025-271W", "EPOCH": "2025-12-20T06:00:02.999808", "MEAN_MOTION": 15.39589637, "ECCENTRICITY": 9.352e-05, "INCLINATION": 53.1592, "RA_OF_ASC_NODE": 151.4292, "ARG_OF_PERICENTER": 79.4242, "MEAN_ANOMALY": 105.7842, "EPHEMERIS_TYPE": 0, "CLASSIFICATION_TYPE": "U", "NORAD_CAT_ID": 66637, "ELEMENT_SET_NO": 999, "REV_AT_EPOCH": 545, "BSTAR": 0.0012646491, "MEAN_MOTION_DOT": 0.0005047, "MEAN_MOTION_DDOT": 0}, "tle": {"line1": "1 66637U 25271W   25354.25003472  .00050470  00000+0  12646-2 0  9993", "line2": "2 66637  53.1592 151.4292 0000935  79.4242 105.7842 15.39589637  5451"}}, "geometry": {"type": "Point", "coordinates": [161.9696237870645, 15.784468717399614]}}, {"type": "Feature", "properties": {"norad_id": 66638, "name": "STARLINK-35972", "group": "last-30-days", "lat": 49.306303863969994, "lon": -149.69461083370584, "alt_km": 439.9589102421569, "timestamp": "2025-12-20T14:38:00.687812+00:00", "meta": {"OBJECT_NAME": "STARLINK-35972", "OBJECT_ID": "2025-271X", "EPOCH": "2025-12-20T06:00:02.999808", "MEAN_MOTION": 15.39549289, "ECCENTRICITY": 0.00013038, "INCLINATION": 53.1592, "RA_OF_ASC_NODE": 151.3269, "ARG_OF_PERICENTER": 104.8349, "MEAN_ANOMALY": 131.8585, "EPHEMERIS_TYPE": 0, "CLASSIFICATION_TYPE": "U", "NORAD_CAT_ID": 66638, "ELEMENT_SET_NO": 999, "REV_AT_EPOCH": 545, "BSTAR": 0.0015432922, "MEAN_MOTION_DOT": 0.00061688, "MEAN_MOTION_DDOT": 0}, "tle": {"line1": "1 66638U 25271X   25354.25003472  .00061688  00000+0  15433-2 0  9994", "line2": "2 66638  53.1592 151.3269 0001303 104.8349 131.8585 15.39549289  5459"}}, "geometry": {"type": "Point", "coordinates": [-149.69461083370584, 49.306303863969994]}}, {"type": "Feature", "properties": {"norad_id": 66639, "name": "STARLINK-35908", "group": "last-30-days", "lat": 52.528275233829426, "lon": -108.40287046092287, "alt_km": 438.4957547856875, "timestamp": "2025-12-20T14:38:00.687824+00:00", "meta": {"OBJECT_NAME": "STARLINK-35908", "OBJECT_ID": "2025-271Y", "EPOCH": "2025-12-20T06:00:02.999808", "MEAN_MOTION": 15.42404297, "ECCENTRICITY": 0.00012749, "INCLINATION": 53.159, "RA_OF_ASC_NODE": 151.2788, "ARG_OF_PERICENTER": 96.5383, "MEAN_ANOMALY": 163.9741, "EPHEMERIS_TYPE": 0, "CLASSIFICATION_TYPE": "U", "NORAD_CAT_ID": 66639, "ELEMENT_SET_NO": 999, "REV_AT_EPOCH": 545, "BSTAR": -0.082857869, "MEAN_MOTION_DOT": -0.03180757, "MEAN_MOTION_DDOT": 0}, "tle": {"line1": "1 66639U 25271Y   25354.25003472 -.03180757  00000+0 -82858-1 0  9993", "line2": "2 66639  53.1590 151.2788 0001274  96.5383 163.9741 15.42404297  5458"}}, "geometry": {"type": "Point", "coordinates": [-108.40287046092287, 52.528275233829426]}}, {"type": "Feature", "properties": {"norad_id": 66640, "name": "STARLINK-35921", "group": "last-30-days", "lat": 34.9038989966688, "lon": -178.77700851988277, "alt_km": 442.5432148631344, "timestamp": "2025-12-20T14:38:00.687834+00:00", "meta": {"OBJECT_NAME": "STARLINK-35921", "OBJECT_ID": "2025-271Z", "EPOCH": "2025-12-20T06:00:02.999808", "MEAN_MOTION": 15.39591437, "ECCENTRICITY": 7.253e-05, "INCLINATION": 53.1588, "RA_OF_ASC_NODE": 151.3774, "ARG_OF_PERICENTER": 106.4373, "MEAN_ANOMALY": 104.5221, "EPHEMERIS_TYPE": 0, "CLASSIFICATION_TYPE": "U", "NORAD_CAT_ID": 66640, "ELEMENT_SET_NO": 999, "REV_AT_EPOCH": 545, "BSTAR": 0.0012550924, "MEAN_MOTION_DOT": 0.00050086, "MEAN_MOTION_DDOT": 0}, "tle": {"line1": "1 66640U 25271Z   25354.25003472  .00050086  00000+0  12551-2 0  9995", "line2": "2 66640  53.1588 151.3774 0000725 106.4373 104.5221 15.39591437  5456"}}, "geometry": {"type": "Point", "coordinates": [-178.77700851988277, 34.9038989966688]}}, {"type": "Feature", "properties": {"norad_id": 66641, "name": "STARLINK-35923", "group": "last-30-days", "lat": 38.12535862598507, "lon": -66.53004728565452, "alt_km": 423.0748383050586, "timestamp": "2025-12-20T14:38:00.687844+00:00", "meta": {"OBJECT_NAME": "STARLINK-35923", "OBJECT_ID": "2025-271AA", "EPOCH": "2025-12-19T22:34:00.655968", "MEAN_MOTION": 15.46730788, "ECCENTRICITY": 0.000193, "INCLINATION": 53.1592, "RA_OF_ASC_NODE": 152.7027, "ARG_OF_PERICENTER": 3.5243, "MEAN_ANOMALY": 356.5778, "EPHEMERIS_TYPE": 0, "CLASSIFICATION_TYPE": "U", "NORAD_CAT_ID": 66641, "ELEMENT_SET_NO": 999, "REV_AT_EPOCH": 532, "BSTAR": -0.0051441, "MEAN_MOTION_DOT": -0.00253595, "MEAN_MOTION_DDOT": 0}, "tle": {"line1": "1 66641U 25271AA  25353.94028537 -.00253595  00000+0 -51441-2 0  9993", "line2": "2 66641  53.1592 152.7027 0001930   3.5243 356.5778 15.46730788  5324"}}, "geometry": {"type": "Point", "coordinates": [-66.53004728565452, 38.12535862598507]}}, {"type": "Feature", "properties": {"norad_id": 66642, "name": "STARLINK-35926", "group": "last-30-days", "lat": 37.52458992999344, "lon": -65.64312612206035, "alt_km": 418.64548673325044, "timestamp": "2025-12-20T14:38:00.687856+00:00", "meta": {"OBJECT_NAME": "STARLINK-35926", "OBJECT_ID": "2025-271AB", "EPOCH": "2025-12-19T17:55:19.162848", "MEAN_MOTION": 15.47687763, "ECCENTRICITY": 0.0001998, "INCLINATION": 53.1589, "RA_OF_ASC_NODE": 153.6296, "ARG_OF_PERICENTER": 136.7356, "MEAN_ANOMALY": 223.381, "EPHEMERIS_TYPE": 0, "CLASSIFICATION_TYPE": "U", "NORAD_CAT_ID": 66642, "ELEMENT_SET_NO": 999, "REV_AT_EPOCH": 525, "BSTAR": -0.0052165, "MEAN_MOTION_DOT": -0.0026545, "MEAN_MOTION_DDOT": 0}, "tle": {"line1": "1 66642U 25271AB  25353.74674957 -.00265450  00000+0 -52165-2 0  9992", "line2": "2 66642  53.1589 153.6296 0001998 136.7356 223.3810 15.47687763  5252"}}, "geometry": {"type": "Point", "coordinates": [-65.64312612206035, 37.52458992999344]}}]}